IRIDIUM 171             
1 43929U 19002H   24125.77730034  .00000013  00000+0 -25300-5 0  9993
2 43929  86.3942 317.0269 0001825  92.9774 267.1631 14.34212662278108
IRIDIUM 170             
1 43930U 19002J   24125.55678997  .00000507  00000+0  76524-4 0  9990
2 43930  86.6065 316.9466 0002308  87.7563 272.3918 14.72239488285438
IRIDIUM 167             
1 43931U 19002K   24125.07326745  .00000093  00000+0  25981-4 0  9990
2 43931  86.3936 317.1164 0002130  89.8779 270.2661 14.34216388278005
IRIDIUM 181             
1 56726U 23068S   24126.20019222  .00000068  00000+0  14129-4 0  9992
2 56726  86.8674   8.2737 0002080  85.9653 274.1786 14.43596487 50933
IRIDIUM 177             
1 56727U 23068T   24126.09544392  .00001812  00000+0  23493-3 0  9992
2 56727  86.1968 335.8318 0001981  98.5904 261.5542 14.80235795 52008
IRIDIUM 174             
1 56728U 23068U   24125.54916789  .00001830  00000+0  23734-3 0  9993
2 56728  86.1977 336.1915 0002457  82.6556 277.4944 14.80228123 51921
IRIDIUM 178             
1 56729U 23068V   24126.15222511  .00001808  00000+0  23448-3 0  9992
2 56729  86.5800 351.3251 0002997  80.2001 279.9558 14.80235301 52016
IRIDIUM 179             
1 56730U 23068W   24126.14671553  .00001781  00000+0  23084-3 0  9993
2 56730  86.6815 354.9178 0002713  84.3344 275.8187 14.80245383 52017
